start=new Date('2023-02-23T00:00:00.000Z').valueOf();
sats=[{"FILE":"3825529","APOAPSIS":"548.108","OBJECT_TYPE":"PAYLOAD","COUNTRY_CODE":"US","ECCENTRICITY":"0.00011810","BSTAR":"-0.00014870000000","RA_OF_ASC_NODE":"208.5385","PERIAPSIS":"546.472","MEAN_ANOMALY":"264.8162","ELEMENT_SET_NO":"999","SITE":"AFETR","RCS_SIZE":"LARGE","MEAN_MOTION_DOT":"-0.00002494","TIME_SYSTEM":"UTC","TLE_LINE2":"2 47842  53.0515 208.5385 0001181  95.2961 264.8162 15.06375050109078","EPOCH":"2023-02-22T19:30:49.819104","ARG_OF_PERICENTER":"95.2961","TLE_LINE1":"1 47842U 21018BH  23053.81307661 -.00002494  00000-0 -14870-3 0  9996","INCLINATION":"53.0515","MEAN_MOTION_DDOT":"0.0000000000000","MEAN_ELEMENT_THEORY":"SGP4","OBJECT_ID":"2021-018BH","DECAY_DATE":null,"LAUNCH_DATE":"2021-03-11","REF_FRAME":"TEME","EPHEMERIS_TYPE":"0","NORAD_CAT_ID":"47842","REV_AT_EPOCH":"10907","CENTER_NAME":"EARTH","PERIOD":"95.594","OBJECT_NAME":"STARLINK-2434","CLASSIFICATION_TYPE":"U","GP_ID":"226473573","SEMIMAJOR_AXIS":"6925.425","MEAN_MOTION":"15.06375050"},{"ELEMENT_SET_NO":"999","MEAN_MOTION_DOT":"0.00019640","SITE":"AFETR","RCS_SIZE":"LARGE","PERIAPSIS":"546.751","MEAN_ANOMALY":"268.8817","TLE_LINE2":"2 47843  53.0518 203.6602 0000764  91.2259 268.8817 15.06378218109106","EPOCH":"2023-02-22T18:51:42.319872","TIME_SYSTEM":"UTC","OBJECT_TYPE":"PAYLOAD","COUNTRY_CODE":"US","APOAPSIS":"547.809","FILE":"3825529","RA_OF_ASC_NODE":"203.6602","BSTAR":"0.00133450000000","ECCENTRICITY":"0.00007640","EPHEMERIS_TYPE":"0","REV_AT_EPOCH":"10910","NORAD_CAT_ID":"47843","REF_FRAME":"TEME","LAUNCH_DATE":"2021-03-11","SEMIMAJOR_AXIS":"6925.415","GP_ID":"226472347","CLASSIFICATION_TYPE":"U","MEAN_MOTION":"15.06378218","PERIOD":"95.594","OBJECT_NAME":"STARLINK-2435","CENTER_NAME":"EARTH","INCLINATION":"53.0518","ARG_OF_PERICENTER":"91.2259","TLE_LINE1":"1 47843U 21018BJ  23053.78590648  .00019640  00000-0  13345-2 0  9996","DECAY_DATE":null,"MEAN_MOTION_DDOT":"0.0000000000000","OBJECT_ID":"2021-018BJ","MEAN_ELEMENT_THEORY":"SGP4"},{"RA_OF_ASC_NODE":"198.3676","BSTAR":"0.00104420000000","ECCENTRICITY":"0.00010070","OBJECT_TYPE":"PAYLOAD","COUNTRY_CODE":"US","APOAPSIS":"548.083","FILE":"3825529","EPOCH":"2023-02-22T20:25:13.619712","TLE_LINE2":"2 47844  53.0526 198.3676 0001007  60.0972 300.0116 15.06343953109169","TIME_SYSTEM":"UTC","SITE":"AFETR","MEAN_MOTION_DOT":"0.00015282","RCS_SIZE":"LARGE","ELEMENT_SET_NO":"999","MEAN_ANOMALY":"300.0116","PERIAPSIS":"546.688","DECAY_DATE":null,"OBJECT_ID":"2021-018BK","MEAN_ELEMENT_THEORY":"SGP4","MEAN_MOTION_DDOT":"0.0000000000000","INCLINATION":"53.0526","ARG_OF_PERICENTER":"60.0972","TLE_LINE1":"1 47844U 21018BK  23053.85085208  .00015282  00000-0  10442-2 0  9999","MEAN_MOTION":"15.06343953","SEMIMAJOR_AXIS":"6925.520","GP_ID":"226472597","CLASSIFICATION_TYPE":"U","PERIOD":"95.596","OBJECT_NAME":"STARLINK-2446","CENTER_NAME":"EARTH","NORAD_CAT_ID":"47844","REV_AT_EPOCH":"10916","EPHEMERIS_TYPE":"0","REF_FRAME":"TEME","LAUNCH_DATE":"2021-03-11"},{"ARG_OF_PERICENTER":"99.8744","TLE_LINE1":"1 47845U 21018BL  23053.86929407  .00002262  00000-0  17076-3 0  9994","INCLINATION":"53.0520","MEAN_MOTION_DDOT":"0.0000000000000","MEAN_ELEMENT_THEORY":"SGP4","OBJECT_ID":"2021-018BL","DECAY_DATE":null,"LAUNCH_DATE":"2021-03-11","REF_FRAME":"TEME","EPHEMERIS_TYPE":"0","NORAD_CAT_ID":"47845","REV_AT_EPOCH":"10917","CENTER_NAME":"EARTH","PERIOD":"95.593","OBJECT_NAME":"STARLINK-2453","CLASSIFICATION_TYPE":"U","GP_ID":"226472848","SEMIMAJOR_AXIS":"6925.411","MEAN_MOTION":"15.06379614","FILE":"3825529","APOAPSIS":"548.185","COUNTRY_CODE":"US","OBJECT_TYPE":"PAYLOAD","ECCENTRICITY":"0.00013130","BSTAR":"0.00017076000000","RA_OF_ASC_NODE":"198.2834","PERIAPSIS":"546.367","MEAN_ANOMALY":"260.2393","ELEMENT_SET_NO":"999","SITE":"AFETR","MEAN_MOTION_DOT":"0.00002262","RCS_SIZE":"LARGE","TIME_SYSTEM":"UTC","TLE_LINE2":"2 47845  53.0520 198.2834 0001313  99.8744 260.2393 15.06379614109174","EPOCH":"2023-02-22T20:51:47.007648"},{"LAUNCH_DATE":"2021-03-11","REF_FRAME":"TEME","EPHEMERIS_TYPE":"0","NORAD_CAT_ID":"47846","REV_AT_EPOCH":"10922","PERIOD":"95.593","OBJECT_NAME":"STARLINK-2456","CENTER_NAME":"EARTH","SEMIMAJOR_AXIS":"6925.413","GP_ID":"226473073","CLASSIFICATION_TYPE":"U","MEAN_MOTION":"15.06379081","TLE_LINE1":"1 47846U 21018BM  23053.86467654  .00003447  00000-0  25030-3 0  9991","ARG_OF_PERICENTER":"92.0112","INCLINATION":"53.0531","MEAN_MOTION_DDOT":"0.0000000000000","OBJECT_ID":"2021-018BM","MEAN_ELEMENT_THEORY":"SGP4","DECAY_DATE":null,"PERIAPSIS":"546.228","MEAN_ANOMALY":"268.1051","ELEMENT_SET_NO":"999","RCS_SIZE":"LARGE","SITE":"AFETR","MEAN_MOTION_DOT":"0.00003447","TIME_SYSTEM":"UTC","TLE_LINE2":"2 47846  53.0531 198.2916 0001515  92.0112 268.1051 15.06379081109228","EPOCH":"2023-02-22T20:45:08.053056","FILE":"3825529","COUNTRY_CODE":"US","OBJECT_TYPE":"PAYLOAD","APOAPSIS":"548.327","ECCENTRICITY":"0.00015150","RA_OF_ASC_NODE":"198.2916","BSTAR":"0.00025030000000"},{"TLE_LINE1":"1 47860U 21021A   23053.73751437 -.00003401  00000-0 -20956-3 0  9996","ARG_OF_PERICENTER":"93.4712","INCLINATION":"53.0549","MEAN_ELEMENT_THEORY":"SGP4","OBJECT_ID":"2021-021A","MEAN_MOTION_DDOT":"0.0000000000000","DECAY_DATE":null,"REF_FRAME":"TEME","LAUNCH_DATE":"2021-03-14","REV_AT_EPOCH":"10850","NORAD_CAT_ID":"47860","EPHEMERIS_TYPE":"0","CENTER_NAME":"EARTH","OBJECT_NAME":"STARLINK-2258","PERIOD":"95.593","MEAN_MOTION":"15.06389624","CLASSIFICATION_TYPE":"U","GP_ID":"226471848","SEMIMAJOR_AXIS":"6925.380","FILE":"3825529","APOAPSIS":"548.315","COUNTRY_CODE":"US","OBJECT_TYPE":"PAYLOAD","ECCENTRICITY":"0.00015440","BSTAR":"-0.00020956000000","RA_OF_ASC_NODE":"228.8629","MEAN_ANOMALY":"266.6453","PERIAPSIS":"546.176","RCS_SIZE":"LARGE","SITE":"AFETR","MEAN_MOTION_DOT":"-0.00003401","ELEMENT_SET_NO":"999","TIME_SYSTEM":"UTC","EPOCH":"2023-02-22T17:42:01.241568","TLE_LINE2":"2 47860  53.0549 228.8629 0001544  93.4712 266.6453 15.06389624108500"},{"BSTAR":"-0.00046471000000","RA_OF_ASC_NODE":"213.4880","ECCENTRICITY":"0.00011510","APOAPSIS":"548.084","OBJECT_TYPE":"PAYLOAD","COUNTRY_CODE":"US","FILE":"3825529","EPOCH":"2023-02-22T19:43:25.720608","TLE_LINE2":"2 47861  53.0556 213.4880 0001151  74.9780 285.1336 15.06376190108837","TIME_SYSTEM":"UTC","SITE":"AFETR","MEAN_MOTION_DOT":"-0.00007192","RCS_SIZE":"LARGE","ELEMENT_SET_NO":"999","MEAN_ANOMALY":"285.1336","PERIAPSIS":"546.489","DECAY_DATE":null,"MEAN_ELEMENT_THEORY":"SGP4","OBJECT_ID":"2021-021B","MEAN_MOTION_DDOT":"0.0000000000000","INCLINATION":"53.0556","ARG_OF_PERICENTER":"74.9780","TLE_LINE1":"1 47861U 21021B   23053.82182547 -.00007192  00000-0 -46471-3 0  9998","MEAN_MOTION":"15.06376190","GP_ID":"226472098","CLASSIFICATION_TYPE":"U","SEMIMAJOR_AXIS":"6925.422","CENTER_NAME":"EARTH","PERIOD":"95.594","OBJECT_NAME":"STARLINK-2280","NORAD_CAT_ID":"47861","REV_AT_EPOCH":"10883","EPHEMERIS_TYPE":"0","REF_FRAME":"TEME","LAUNCH_DATE":"2021-03-14"},{"TIME_SYSTEM":"UTC","EPOCH":"2023-02-22T20:50:26.078496","TLE_LINE2":"2 47862  53.0531 208.2915 0001720 104.6126 255.5054 15.06403707108900","MEAN_ANOMALY":"255.5054","PERIAPSIS":"546.011","MEAN_MOTION_DOT":"0.00011962","SITE":"AFETR","RCS_SIZE":"LARGE","ELEMENT_SET_NO":"999","ECCENTRICITY":"0.00017200","RA_OF_ASC_NODE":"208.2915","BSTAR":"0.00082048000000","FILE":"3825529","OBJECT_TYPE":"PAYLOAD","COUNTRY_CODE":"US","APOAPSIS":"548.393","OBJECT_NAME":"STARLINK-2291","PERIOD":"95.592","CENTER_NAME":"EARTH","MEAN_MOTION":"15.06403707","SEMIMAJOR_AXIS":"6925.337","CLASSIFICATION_TYPE":"U","GP_ID":"226473350","REF_FRAME":"TEME","LAUNCH_DATE":"2021-03-14","NORAD_CAT_ID":"47862","REV_AT_EPOCH":"10890","EPHEMERIS_TYPE":"0","OBJECT_ID":"2021-021C","MEAN_ELEMENT_THEORY":"SGP4","MEAN_MOTION_DDOT":"0.0000000000000","DECAY_DATE":null,"TLE_LINE1":"1 47862U 21021C   23053.86835739  .00011962  00000-0  82048-3 0  9999","ARG_OF_PERICENTER":"104.6126","INCLINATION":"53.0531"},{"LAUNCH_DATE":"2021-03-14","REF_FRAME":"TEME","NORAD_CAT_ID":"47863","REV_AT_EPOCH":"10875","EPHEMERIS_TYPE":"0","PERIOD":"95.593","OBJECT_NAME":"STARLINK-2293","CENTER_NAME":"EARTH","MEAN_MOTION":"15.06379168","SEMIMAJOR_AXIS":"6925.412","GP_ID":"226473575","CLASSIFICATION_TYPE":"U","TLE_LINE1":"1 47863U 21021D   23053.76054520 -.00008441  00000-0 -54877-3 0  9999","ARG_OF_PERICENTER":"96.4543","INCLINATION":"53.0530","OBJECT_ID":"2021-021D","MEAN_ELEMENT_THEORY":"SGP4","MEAN_MOTION_DDOT":"0.0000000000000","DECAY_DATE":null,"MEAN_ANOMALY":"263.6562","PERIAPSIS":"546.574","SITE":"AFETR","RCS_SIZE":"LARGE","MEAN_MOTION_DOT":"-0.00008441","ELEMENT_SET_NO":"999","TIME_SYSTEM":"UTC","EPOCH":"2023-02-22T18:15:11.105280","TLE_LINE2":"2 47863  53.0530 218.7711 0001016  96.4543 263.6562 15.06379168108759","FILE":"3825529","COUNTRY_CODE":"US","OBJECT_TYPE":"PAYLOAD","APOAPSIS":"547.981","ECCENTRICITY":"0.00010160","RA_OF_ASC_NODE":"218.7711","BSTAR":"-0.00054877000000"},{"INCLINATION":"53.0519","ARG_OF_PERICENTER":"97.4695","TLE_LINE1":"1 47864U 21021E   23053.47396382 -.00013013  00000-0 -85690-3 0  9991","DECAY_DATE":null,"MEAN_MOTION_DDOT":"0.0000000000000","OBJECT_ID":"2021-021E","MEAN_ELEMENT_THEORY":"SGP4","EPHEMERIS_TYPE":"0","NORAD_CAT_ID":"47864","REV_AT_EPOCH":"10882","REF_FRAME":"TEME","LAUNCH_DATE":"2021-03-14","SEMIMAJOR_AXIS":"6925.429","CLASSIFICATION_TYPE":"U","GP_ID":"226420821","MEAN_MOTION":"15.06373736","PERIOD":"95.594","OBJECT_NAME":"STARLINK-2304","CENTER_NAME":"EARTH","COUNTRY_CODE":"US","OBJECT_TYPE":"PAYLOAD","APOAPSIS":"548.048","FILE":"3824148","RA_OF_ASC_NODE":"210.1087","BSTAR":"-0.00085690000000","ECCENTRICITY":"0.00010880","ELEMENT_SET_NO":"999","MEAN_MOTION_DOT":"-0.00013013","SITE":"AFETR","RCS_SIZE":"LARGE","PERIAPSIS":"546.541","MEAN_ANOMALY":"262.6417","TLE_LINE2":"2 47864  53.0519 210.1087 0001088  97.4695 262.6417 15.06373736108828","EPOCH":"2023-02-22T11:22:30.474048","TIME_SYSTEM":"UTC"}];
